ONEWEB-0228             
1 48780U 21045P   23279.51152194  .00000041  00000+0  75529-4 0  9996
2 48780  87.8934  95.2366 0001827  85.0714 275.0624 13.15547824114868
